ORBCOMM FM05            
1 25117U 97084F   24361.29086748  .00005039  00000+0  14771-2 0  9992
2 25117  45.0134 117.5366 0000850 156.6960 203.3929 14.44775447415599
ORBCOMM FM06            
1 25118U 97084G   24361.30547240  .00005254  00000+0  15326-2 0  9990
2 25118  45.0126 117.4188 0001389 202.6000 180.9731 14.44957240416514
ORBCOMM FM03            
1 25158U 98007B   24361.28286019  .00003732  00000+0  13727-2 0  9993
2 25158 107.9661 140.5751 0047096 194.2176 165.7640 14.33670173399254
ORBCOMM FM04            
1 25159U 98007C   24361.29813413  .00004063  00000+0  14854-2 0  9999
2 25159 107.9649 143.7073 0042639 192.0993 167.9125 14.33938887399435
ORBCOMM FM17            
1 25413U 98046A   24361.16372745  .00002914  00000+0  10753-2 0  9996
2 25413  44.9954 353.8123 0001979   3.1946 356.8913 14.34407888378321
ORBCOMM FM19            
1 25415U 98046C   24361.19360799  .00003858  00000+0  13251-2 0  9991
2 25415  44.9938 277.2662 0002702  97.8422  50.6888 14.37424743379509
